CCSDS_OMM_VERS = 2.0
CREATION_DATE  = 
ORIGINATOR     = 

OBJECT_NAME    = COSMOS 2058
OBJECT_ID      = 1990-010A
CENTER_NAME    = EARTH
REF_FRAME      = TEME
TIME_SYSTEM    = UTC
MEAN_ELEMENT_THEORY = SGP/SGP4

EPOCH          = 2026-04-01T02:11:49.016256
MEAN_MOTION    = 15.11536754
ECCENTRICITY   = .0007653
INCLINATION    = 82.4712
RA_OF_ASC_NODE = 25.3541
ARG_OF_PERICENTER = 252.6612
MEAN_ANOMALY   = 107.3781

EPHEMERIS_TYPE = 0
CLASSIFICATION_TYPE = U
NORAD_CAT_ID   = 20465
ELEMENT_SET_NO = 999
REV_AT_EPOCH   = 94562
BSTAR          = .38644E-3
MEAN_MOTION_DOT = .658E-4
MEAN_MOTION_DDOT = 0

CCSDS_OMM_VERS = 2.0
CREATION_DATE  = 
ORIGINATOR     = 

OBJECT_NAME    = SL-14 R/B
OBJECT_ID      = 1990-010B
CENTER_NAME    = EARTH
REF_FRAME      = TEME
TIME_SYSTEM    = UTC
MEAN_ELEMENT_THEORY = SGP/SGP4

EPOCH          = 2026-03-31T22:39:34.345728
MEAN_MOTION    = 14.83590753
ECCENTRICITY   = .00187809
INCLINATION    = 82.5001
RA_OF_ASC_NODE = 246.4786
ARG_OF_PERICENTER = 223.4943
MEAN_ANOMALY   = 136.4792

EPHEMERIS_TYPE = 0
CLASSIFICATION_TYPE = U
NORAD_CAT_ID   = 20466
ELEMENT_SET_NO = 999
REV_AT_EPOCH   = 93178
BSTAR          = .79590521E-4
MEAN_MOTION_DOT = .681E-5
MEAN_MOTION_DDOT = 0

CCSDS_OMM_VERS = 2.0
CREATION_DATE  = 
ORIGINATOR     = 

OBJECT_NAME    = SL-14 R/B
OBJECT_ID      = 1990-018B
CENTER_NAME    = EARTH
REF_FRAME      = TEME
TIME_SYSTEM    = UTC
MEAN_ELEMENT_THEORY = SGP/SGP4

EPOCH          = 2026-04-01T01:13:11.326656
MEAN_MOTION    = 14.82167665
ECCENTRICITY   = .0016695
INCLINATION    = 82.5239
RA_OF_ASC_NODE = 202.1938
ARG_OF_PERICENTER = 23.3164
MEAN_ANOMALY   = 336.8804

EPHEMERIS_TYPE = 0
CLASSIFICATION_TYPE = U
NORAD_CAT_ID   = 20511
ELEMENT_SET_NO = 999
REV_AT_EPOCH   = 92589
BSTAR          = .71774E-4
MEAN_MOTION_DOT = .596E-5
MEAN_MOTION_DDOT = 0

CCSDS_OMM_VERS = 2.0
CREATION_DATE  = 
ORIGINATOR     = 

OBJECT_NAME    = HST
OBJECT_ID      = 1990-037B
CENTER_NAME    = EARTH
REF_FRAME      = TEME
TIME_SYSTEM    = UTC
MEAN_ELEMENT_THEORY = SGP/SGP4

EPOCH          = 2026-04-01T03:00:16.339104
MEAN_MOTION    = 15.29843870
ECCENTRICITY   = .0001974
INCLINATION    = 28.4719
RA_OF_ASC_NODE = 246.9114
ARG_OF_PERICENTER = 26.3027
MEAN_ANOMALY   = 333.7668

EPHEMERIS_TYPE = 0
CLASSIFICATION_TYPE = U
NORAD_CAT_ID   = 20580
ELEMENT_SET_NO = 999
REV_AT_EPOCH   = 77675
BSTAR          = .35185E-3
MEAN_MOTION_DOT = .10706E-3
MEAN_MOTION_DDOT = 0

CCSDS_OMM_VERS = 2.0
CREATION_DATE  = 
ORIGINATOR     = 

OBJECT_NAME    = SL-16 R/B
OBJECT_ID      = 1990-046B
CENTER_NAME    = EARTH
REF_FRAME      = TEME
TIME_SYSTEM    = UTC
MEAN_ELEMENT_THEORY = SGP/SGP4

EPOCH          = 2026-04-01T04:15:08.523936
MEAN_MOTION    = 14.15018108
ECCENTRICITY   = .0016448
INCLINATION    = 70.9983
RA_OF_ASC_NODE = 250.6813
ARG_OF_PERICENTER = 270.3201
MEAN_ANOMALY   = 89.6037

EPHEMERIS_TYPE = 0
CLASSIFICATION_TYPE = U
NORAD_CAT_ID   = 20625
ELEMENT_SET_NO = 999
REV_AT_EPOCH   = 85157
BSTAR          = .86465E-4
MEAN_MOTION_DOT = .12E-5
MEAN_MOTION_DDOT = 0

CCSDS_OMM_VERS = 2.0
CREATION_DATE  = 
ORIGINATOR     = 

OBJECT_NAME    = COSMOS 2084
OBJECT_ID      = 1990-055A
CENTER_NAME    = EARTH
REF_FRAME      = TEME
TIME_SYSTEM    = UTC
MEAN_ELEMENT_THEORY = SGP/SGP4

EPOCH          = 2026-04-01T04:03:32.546016
MEAN_MOTION    = 15.05781279
ECCENTRICITY   = .0013458
INCLINATION    = 62.7892
RA_OF_ASC_NODE = 258.8986
ARG_OF_PERICENTER = 197.4488
MEAN_ANOMALY   = 162.6152

EPHEMERIS_TYPE = 0
CLASSIFICATION_TYPE = U
NORAD_CAT_ID   = 20663
ELEMENT_SET_NO = 999
REV_AT_EPOCH   = 93970
BSTAR          = .23313E-3
MEAN_MOTION_DOT = .3199E-4
MEAN_MOTION_DDOT = 0

CCSDS_OMM_VERS = 2.0
CREATION_DATE  = 
ORIGINATOR     = 

OBJECT_NAME    = SL-6 R/B(2)
OBJECT_ID      = 1990-055D
CENTER_NAME    = EARTH
REF_FRAME      = TEME
TIME_SYSTEM    = UTC
MEAN_ELEMENT_THEORY = SGP/SGP4

EPOCH          = 2026-03-31T23:35:41.341632
MEAN_MOTION    = 15.03704201
ECCENTRICITY   = .0028468
INCLINATION    = 62.7835
RA_OF_ASC_NODE = 178.0323
ARG_OF_PERICENTER = 352.0719
MEAN_ANOMALY   = 7.9926

EPHEMERIS_TYPE = 0
CLASSIFICATION_TYPE = U
NORAD_CAT_ID   = 20666
ELEMENT_SET_NO = 999
REV_AT_EPOCH   = 94154
BSTAR          = .21049E-3
MEAN_MOTION_DOT = .2722E-4
MEAN_MOTION_DDOT = 0

CCSDS_OMM_VERS = 2.0
CREATION_DATE  = 
ORIGINATOR     = 

OBJECT_NAME    = SL-8 R/B
OBJECT_ID      = 1990-078B
CENTER_NAME    = EARTH
REF_FRAME      = TEME
TIME_SYSTEM    = UTC
MEAN_ELEMENT_THEORY = SGP/SGP4

EPOCH          = 2026-04-01T01:56:45.555648
MEAN_MOTION    = 14.89725195
ECCENTRICITY   = .0357967
INCLINATION    = 82.9032
RA_OF_ASC_NODE = 231.1595
ARG_OF_PERICENTER = 298.4482
MEAN_ANOMALY   = 58.1101

EPHEMERIS_TYPE = 0
CLASSIFICATION_TYPE = U
NORAD_CAT_ID   = 20775
ELEMENT_SET_NO = 999
REV_AT_EPOCH   = 81263
BSTAR          = .40923E-3
MEAN_MOTION_DOT = .13809E-3
MEAN_MOTION_DDOT = 0

CCSDS_OMM_VERS = 2.0
CREATION_DATE  = 
ORIGINATOR     = 

OBJECT_NAME    = SL-8 R/B
OBJECT_ID      = 1991-006B
CENTER_NAME    = EARTH
REF_FRAME      = TEME
TIME_SYSTEM    = UTC
MEAN_ELEMENT_THEORY = SGP/SGP4

EPOCH          = 2026-04-01T05:06:31.853088
MEAN_MOTION    = 13.77497883
ECCENTRICITY   = .0021626
INCLINATION    = 82.9439
RA_OF_ASC_NODE = 153.3005
ARG_OF_PERICENTER = 335.4519
MEAN_ANOMALY   = 78.5931

EPHEMERIS_TYPE = 0
CLASSIFICATION_TYPE = U
NORAD_CAT_ID   = 21088
ELEMENT_SET_NO = 999
REV_AT_EPOCH   = 76717
BSTAR          = .10654E-3
MEAN_MOTION_DOT = .121E-5
MEAN_MOTION_DDOT = 0

CCSDS_OMM_VERS = 2.0
CREATION_DATE  = 
ORIGINATOR     = 

OBJECT_NAME    = OKEAN-3
OBJECT_ID      = 1991-039A
CENTER_NAME    = EARTH
REF_FRAME      = TEME
TIME_SYSTEM    = UTC
MEAN_ELEMENT_THEORY = SGP/SGP4

EPOCH          = 2026-04-01T05:16:45.352704
MEAN_MOTION    = 15.04935022
ECCENTRICITY   = .0012518
INCLINATION    = 82.5154
RA_OF_ASC_NODE = 315.0126
ARG_OF_PERICENTER = 253.6565
MEAN_ANOMALY   = 106.3286

EPHEMERIS_TYPE = 0
CLASSIFICATION_TYPE = U
NORAD_CAT_ID   = 21397
ELEMENT_SET_NO = 999
REV_AT_EPOCH   = 86842
BSTAR          = .21008E-3
MEAN_MOTION_DOT = .3007E-4
MEAN_MOTION_DDOT = 0

CCSDS_OMM_VERS = 2.0
CREATION_DATE  = 
ORIGINATOR     = 

OBJECT_NAME    = COSMOS 2151
OBJECT_ID      = 1991-042A
CENTER_NAME    = EARTH
REF_FRAME      = TEME
TIME_SYSTEM    = UTC
MEAN_ELEMENT_THEORY = SGP/SGP4

EPOCH          = 2026-04-01T03:52:58.771776
MEAN_MOTION    = 15.00203421
ECCENTRICITY   = .0012002
INCLINATION    = 82.4950
RA_OF_ASC_NODE = 61.9921
ARG_OF_PERICENTER = 352.4037
MEAN_ANOMALY   = 7.7003

EPHEMERIS_TYPE = 0
CLASSIFICATION_TYPE = U
NORAD_CAT_ID   = 21422
ELEMENT_SET_NO = 999
REV_AT_EPOCH   = 86656
BSTAR          = .16607E-3
MEAN_MOTION_DOT = .2104E-4
MEAN_MOTION_DDOT = 0

CCSDS_OMM_VERS = 2.0
CREATION_DATE  = 
ORIGINATOR     = 

OBJECT_NAME    = SL-14 R/B
OBJECT_ID      = 1991-042B
CENTER_NAME    = EARTH
REF_FRAME      = TEME
TIME_SYSTEM    = UTC
MEAN_ELEMENT_THEORY = SGP/SGP4

EPOCH          = 2026-04-01T00:59:11.498784
MEAN_MOTION    = 14.81852780
ECCENTRICITY   = .0017488
INCLINATION    = 82.4957
RA_OF_ASC_NODE = 199.2278
ARG_OF_PERICENTER = 163.0627
MEAN_ANOMALY   = 197.1175

EPHEMERIS_TYPE = 0
CLASSIFICATION_TYPE = U
NORAD_CAT_ID   = 21423
ELEMENT_SET_NO = 999
REV_AT_EPOCH   = 85638
BSTAR          = .75246E-4
MEAN_MOTION_DOT = .619E-5
MEAN_MOTION_DDOT = 0

